OBJECT_NAME,OBJECT_ID,EPOCH,MEAN_MOTION,ECCENTRICITY,INCLINATION,RA_OF_ASC_NODE,ARG_OF_PERICENTER,MEAN_ANOMALY,EPHEMERIS_TYPE,CLASSIFICATION_TYPE,NORAD_CAT_ID,ELEMENT_SET_NO,REV_AT_EPOCH,BSTAR,MEAN_MOTION_DOT,MEAN_MOTION_DDOT
KUZGTU 1 (RS47S),2023-091AV,2026-06-04T05:06:41.554944,15.29547520,.00121715,97.5065,219.5637,138.0553,222.1622,0,U,57217,999,16239,.48911984E-3,.13972E-3,0
SONATE-2,2024-043Q,2026-06-03T23:22:02.781120,15.57700323,.00063261,97.5529,304.5700,241.9322,118.1294,0,U,59112,999,12583,.52778692E-3,.39146E-3,0
MESAT1,2024-125G,2026-06-04T02:32:01.449312,15.61758967,.00083317,97.2302,12.3026,256.8066,103.2263,0,U,60209,999,10752,.69656311E-3,.60503E-3,0
OOV-CUBE (TUBSAT-30),2024-128F,2026-06-04T17:53:35.030112,15.02715744,.004617,61.9957,268.9543,130.9825,229.5275,0,U,60240,999,10424,.2451E-3,.3151E-4,0
COLIBRI-S (RS67S),2024-199M,2026-06-04T06:11:50.773056,15.47164785,.00071498,97.3006,28.9987,338.6647,21.4304,0,U,61746,999,13541,.50221227E-3,.25478E-3,0
HORS 3 (RS81S),2024-199U,2026-06-04T17:31:49.608192,15.54083275,.0004928,97.2989,31.3301,346.8066,13.3058,0,U,61753,999,13562,.56083E-3,.36393E-3,0
HORS 4 (RS82S),2024-199V,2026-06-04T17:27:28.725984,15.58488465,.0003622,97.2936,32.4509,339.6919,20.4193,0,U,61754,999,13570,.6033E-3,.46117E-3,0
ARCTICSAT 1 (RS74S),2024-199AD,2026-06-04T01:02:46.561344,16.00815121,.0005603,97.2861,38.2010,197.5172,162.5915,0,U,61762,999,13601,.12212177E-2,.64706E-2,.19277461E-3
SIT-2086,2024-199AF,2026-06-04T07:21:40.973472,15.52161728,.00049848,97.2949,31.4197,322.8107,37.2799,0,U,61764,999,13243,.6494279E-3,.39352E-3,0
HYPERVIEW 1G (RS66S),2024-199AP,2026-06-04T17:32:26.414592,15.72624267,.0002185,97.2892,34.8492,319.5385,40.5716,0,U,61772,999,13271,.85499E-3,.115729E-2,0
ALTAIR (RS65S),2024-199AW,2026-06-04T17:47:42.734112,15.36761393,.001244,97.3039,25.1756,359.6829,0.4405,0,U,61779,999,13520,.31011E-3,.11088E-3,0
ASRTU-1 (AO-123),2024-199AY,2026-06-04T06:18:01.035072,15.35480458,.00137409,97.3011,24.0505,3.1440,356.9888,0,U,61781,999,13194,.26071879E-3,.8936E-4,0
SAMSAT-IONOSPHERE (RS75S),2024-199BB,2026-06-04T06:29:27.426048,15.56459822,.00068941,97.2959,30.8641,341.8911,18.2098,0,U,61784,999,13555,.70806112E-3,.50265E-3,0
RTU MIREA 1 (RS51S),2024-199BC,2026-06-04T06:11:52.018080,15.59639875,.00063015,97.2949,31.6191,337.3734,22.7244,0,U,61785,999,13245,.78721873E-3,.63047E-3,0
TEVEL2-4,2025-052D,2026-06-02T05:56:32.581248,15.34050425,.00040908,97.3927,49.6197,133.0862,227.0724,0,U,63213,999,6782,.60334383E-3,.19833E-3,0
TEVEL2-5,2025-052E,2026-06-04T16:19:21.885024,15.33985737,.000407,97.3911,52.0060,127.8276,232.3335,0,U,63214,999,6819,.62137E-3,.20387E-3,0
TEVEL2-6,2025-052F,2026-06-03T15:33:41.668416,15.33906822,.0004181,97.3918,50.9581,130.1242,230.0368,0,U,63215,999,6803,.61519E-3,.20133E-3,0
TEVEL2-1,2025-052H,2026-06-02T16:39:16.232832,15.33355434,.0003899,97.3886,49.6443,141.0246,219.1278,0,U,63217,999,6787,.61840095E-3,.19888E-3,0
TEVEL2-3,2025-052J,2026-06-03T05:04:02.160768,15.33427572,.0003877,97.3892,50.1814,141.5958,218.5561,0,U,63218,999,6795,.61001E-3,.19661E-3,0
TEVEL2-2,2025-052K,2026-06-03T14:35:25.631520,15.33398099,.00038129,97.3889,50.5598,141.3409,218.8107,0,U,63219,999,6801,.63027532E-3,.203E-3,0
TEVEL2-9,2025-052AD,2026-06-04T16:17:23.004672,15.31497239,.0006594,97.3945,51.0324,167.3372,192.8036,0,U,63237,999,6811,.56461E-3,.17126E-3,0
TEVEL2-7,2025-052AE,2026-06-03T14:33:06.588864,15.31176236,.00064176,97.3955,49.8841,171.2563,188.8791,0,U,63238,999,6794,.58397265E-3,.17541E-3,0
TEVEL2-8,2025-052AF,2026-06-03T22:35:19.148640,15.31169698,.0006473,97.3952,50.1954,170.8239,189.3121,0,U,63239,999,6799,.57066E-3,.17135E-3,0
INNOSAT 16 (RS92S7),2025-155C,2026-06-04T17:38:24.578016,15.25319666,.0009102,97.4563,122.9044,221.6092,138.4454,0,U,64878,999,7877,.26828E-3,.6693E-4,0
GEOSCAN 6 (RS92S6),2025-155D,2026-06-04T07:08:41.961696,15.29897928,.00066147,97.4555,123.8029,208.2666,151.8216,0,U,64879,999,7879,.38683074E-3,.11133E-3,0
GEOSCAN 1 (RS92S1),2025-155E,2026-06-04T05:45:10.557792,15.30473358,.0006509,97.4552,123.8816,208.2464,151.8425,0,U,64880,999,7879,.42044227E-3,.12326E-3,0
239ALFEROV (RS61S),2025-155F,2026-06-04T07:01:37.212384,15.32580850,.00061308,97.4554,124.4538,204.3562,155.7391,0,U,64881,999,7883,.47662885E-3,.14937E-3,0
GEOSCAN 2 (RS92S2),2025-155Q,2026-06-04T05:39:23.174496,15.30745000,.00063945,97.4551,124.0250,191.9436,168.1654,0,U,64890,999,7880,.40377182E-3,.11934E-3,0
GEOSCAN 5 (RS92S5),2025-155R,2026-06-04T17:47:40.244064,15.32911499,.0004889,97.4546,125.0384,205.6896,154.4104,0,U,64891,999,7891,.5015E-3,.15883E-3,0
GEOSCAN 4 (RS92S4),2025-155S,2026-06-04T17:26:39.850368,15.33058642,.000493,97.4550,125.0686,206.7312,153.3677,0,U,64892,999,7891,.50217E-3,.15978E-3,0
